[{"OBJECT_NAME":"STARLINK-4472","OBJECT_ID":"2022-105P","EPOCH":"2026-03-09T14:59:47.243904","MEAN_MOTION":15.01262358,"ECCENTRICITY":6.18e-5,"INCLINATION":97.6032,"RA_OF_ASC_NODE":310.1441,"ARG_OF_PERICENTER":101.6515,"MEAN_ANOMALY":258.4778,"EPHEMERIS_TYPE":0,"CLASSIFICATION_TYPE":"U","NORAD_CAT_ID":53661,"ELEMENT_SET_NO":999,"REV_AT_EPOCH":19322,"BSTAR":4.5629e-5,"MEAN_MOTION_DOT":5.28e-6,"MEAN_MOTION_DDOT":0},{"OBJECT_NAME":"CZ-6A DEB","OBJECT_ID":"2022-151AJB","EPOCH":"2026-02-27T14:06:27.470880","MEAN_MOTION":15.13235807,"ECCENTRICITY":0.00651829,"INCLINATION":98.7617,"RA_OF_ASC_NODE":191.4844,"ARG_OF_PERICENTER":85.1472,"MEAN_ANOMALY":275.7194,"EPHEMERIS_TYPE":0,"CLASSIFICATION_TYPE":"U","NORAD_CAT_ID":58433,"ELEMENT_SET_NO":999,"REV_AT_EPOCH":15167,"BSTAR":0.0027921214,"MEAN_MOTION_DOT":0.00052525,"MEAN_MOTION_DDOT":0}]
